{
    "links": {
        "self": "http://www.neowsapp.com/rest/v1/neo/3753859?api_key=iIulBulltgU6a56xZRHN4H3l9WmuAYTsLGpBGhQ2"
    },
    "id": "3753859",
    "neo_reference_id": "3753859",
    "name": "(2016 LP10)",
    "designation": "2016 LP10",
    "nasa_jpl_url": "http://ssd.jpl.nasa.gov/sbdb.cgi?sstr=3753859",
    "absolute_magnitude_h": 29.3,
    "estimated_diameter": {
        "kilometers": {
            "estimated_diameter_min": 0.0036690614,
            "estimated_diameter_max": 0.0082042706
        },
        "meters": {
            "estimated_diameter_min": 3.6690613753,
            "estimated_diameter_max": 8.2042706488
        },
        "miles": {
            "estimated_diameter_min": 0.0022798483,
            "estimated_diameter_max": 0.0050978959
        },
        "feet": {
            "estimated_diameter_min": 12.0376033226,
            "estimated_diameter_max": 26.9168993155
        }
    },
    "is_potentially_hazardous_asteroid": false,
    "close_approach_data": [
        {
            "close_approach_date": "2016-04-08",
            "close_approach_date_full": "2016-Apr-08 19:41",
            "epoch_date_close_approach": 1460144460000,
            "relative_velocity": {
                "kilometers_per_second": "12.316389919",
                "kilometers_per_hour": "44339.0037083176",
                "miles_per_hour": "27550.5326097599"
            },
            "miss_distance": {
                "astronomical": "0.0930285684",
                "lunar": "36.1881131076",
                "kilometers": "13916875.681789308",
                "miles": "8647545.5566481304"
            },
            "orbiting_body": "Mars"
        },
        {
            "close_approach_date": "2016-06-09",
            "close_approach_date_full": "2016-Jun-09 18:32",
            "epoch_date_close_approach": 1465497120000,
            "relative_velocity": {
                "kilometers_per_second": "15.9148617218",
                "kilometers_per_hour": "57293.5021983209",
                "miles_per_hour": "35599.9541853955"
            },
            "miss_distance": {
                "astronomical": "0.0004790177",
                "lunar": "0.1863378853",
                "kilometers": "71660.027612299",
                "miles": "44527.4763917662"
            },
            "orbiting_body": "Earth"
        },
        {
            "close_approach_date": "2016-06-09",
            "close_approach_date_full": "2016-Jun-09 19:55",
            "epoch_date_close_approach": 1465502100000,
            "relative_velocity": {
                "kilometers_per_second": "16.7742196387",
                "kilometers_per_hour": "60387.1906991465",
                "miles_per_hour": "37522.2519097002"
            },
            "miss_distance": {
                "astronomical": "0.0020440346",
                "lunar": "0.7951294594",
                "kilometers": "305783.222366302",
                "miles": "190004.8837348876"
            },
            "orbiting_body": "Moon"
        }
    ],
    "orbital_data": {
        "orbit_id": "3",
        "orbit_determination_date": "2017-04-06 08:25:26",
        "first_observation_date": "2016-06-08",
        "last_observation_date": "2016-06-09",
        "data_arc_in_days": 1,
        "observations_used": 13,
        "orbit_uncertainty": "8",
        "minimum_orbit_intersection": "8.52425E-6",
        "jupiter_tisserand_invariant": "3.488",
        "epoch_osculation": "2457548.5",
        "eccentricity": ".6222161466883165",
        "semi_major_axis": "2.083218265105827",
        "inclination": ".6694728327585494",
        "ascending_node_longitude": "79.30214924520979",
        "orbital_period": "1098.248424444165",
        "perihelion_distance": ".7870062234809594",
        "perihelion_argument": "245.3235226784278",
        "aphelion_distance": "3.379430306730694",
        "perihelion_time": "2457592.941453273331",
        "mean_anomaly": "345.4323276753196",
        "mean_motion": ".3277946883303746",
        "equinox": "J2000",
        "orbit_class": {
            "orbit_class_type": "APO",
            "orbit_class_description": "Near-Earth asteroid orbits which cross the Earth’s orbit similar to that of 1862 Apollo",
            "orbit_class_range": "a (semi-major axis) > 1.0 AU; q (perihelion) < 1.017 AU"
        }
    },
    "is_sentry_object": false
}